ID,Address,Suburb,Price,Type,Date,Rooms,Bathroom,Car,LandSize,Age,Latitude,Longitude,train_station_id,distance_to_train_station,travel_min_to_CBD,over_priced?,crime_A_average,crime_B_average,crime_C_average,closest_primary_school,distance_to_closest_primary,primary_school_ranking,closest_secondary_school,distance_to_closest_secondary,secondary_school_ranking
ID892576595,5/113 Cecil St,FITZROY,597000.0,u,18/06/2016,1,1.0,1.0,0.0,19.0,-37.7941,144.9802,19975,1374.21,13.24,False,334.67,1407.67,88.33,Fitzroy Community School,549.53,4,Academy of Mary Immaculate,1184.94,144
ID967577114,13 Gordon St,ESSENDON,1398000.0,h,8/07/2017,3,2.0,1.0,445.0,59.0,-37.75621,144.93401,20035,1523.25,29.0,False,330.33,1855.0,82.0,Moonee Ponds Primary School,798.9,225,Lowther Hall Anglican Grammar School,1725.15,not ranked
ID858526040,24/1 Muir St,HAWTHORN,1100000.0,h,15/07/2017,3,2.0,1.0,109.0,20.0,-37.81442,145.01531,19905,1060.65,13.95,False,1173.67,8523.67,974.67,Trinity Catholic School,641.6,not ranked,Melbourne Girls College,904.3,not ranked
ID628099007,11 Goshawk Ct,CARRUM DOWNS,561000.0,h,17/06/2017,3,1.0,2.0,787.0,26.0,-38.10709,145.1744,19856,3793.41,66.82,False,990.0,3070.0,411.0,St Joachim's School,548.22,not ranked,Carrum Downs Secondary College,2424.03,not ranked
ID243061111,2306/265 Exhibition St,MELBOURNE,780000.0,u,4/06/2016,2,2.0,1.0,0.0,22.0,-37.8095,144.9691,19843,377.17,6.1,False,278.0,489.0,65.0,Carlton Gardens Primary School,830.44,199,Stott's Colleges,260.35,not ranked
ID959834670,6 Abassia St,BALWYN NORTH,1505000.0,h,7/05/2016,6,2.0,2.0,724.0,66.0,-37.8021,145.0985,19896,2025.42,28.79,False,925.67,4701.33,308.67,Greythorn Primary School,235.38,93,Box Hill Senior Secondary College,1422.2,not ranked
ID863966607,5/8 Violet St,ESSENDON,440000.0,u,27/11/2016,2,1.0,1.0,1011.0,49.0,-37.7556,144.9132,20037,267.76,24.0,False,334.67,1407.67,88.33,Lowther Hall Anglican Grammar School,504.33,207,St Columba's College,202.5,85
ID520821585,603/120 Palmer St,RICHMOND,390000.0,u,14/05/2016,1,1.0,1.0,0.0,8.0,-37.8195,145.0103,19906,929.13,11.9,True,824.67,1890.33,159.33,Trinity Catholic School,444.54,not ranked,Melbourne Girls College,487.72,not ranked
ID701880986,21/54 Balston St,BALACLAVA,328500.0,u,8/07/2017,1,1.0,1.0,0.0,5.0,-37.86874,144.998,19956,403.06,17.5,False,1672.67,10063.67,646.33,Yeshivah College,216.92,388,Yeshivah College,216.92,63
ID788686188,59 Alamein Rd,HEIDELBERG WEST,532000.0,h,7/11/2016,3,1.0,1.0,390.0,64.0,-37.7369,145.0422,19936,2210.03,31.75,False,1150.67,7827.0,922.33,East Preston Islamic College,620.35,not ranked,East Preston Islamic College,620.35,491
ID517465616,2/21 Vickery St,BENTLEIGH,410000.0,u,22/07/2017,2,1.0,1.0,834.0,52.0,-37.91627,145.03892,19939,212.35,35.15,False,959.0,4476.67,324.0,St Paul's School,763.27,211,McKinnon Secondary College,958.83,48
ID801988246,45 Kennedy St,GLEN WAVERLEY,1750000.0,h,16/09/2017,3,1.0,0.0,727.0,46.0,-37.8763,145.17166,19899,6206.51,31.67,False,56.33,98.33,19.0,Glen Waverley Primary School,398.81,46,Glen Waverley Secondary College,863.0,not ranked
ID340885915,75 Lowson St,FAWKNER,720000.0,h,1/07/2017,3,1.0,2.0,603.0,3.0,-37.69863,144.96685,19961,738.54,39.0,True,1253.67,7401.33,484.67,St Matthew's School,110.4,not ranked,John Fawkner Secondary College,633.21,not ranked
ID777390778,10/352 Auburn Rd,HAWTHORN,560000.0,u,22/04/2017,2,1.0,0.0,0.0,59.0,-37.832,145.0431,19903,1095.72,17.9,False,1173.67,8523.67,974.67,Auburn South Primary School,844.99,124,Auburn High School,894.06,167
ID423854806,53 River St,NEWPORT,1260000.0,h,7/05/2016,4,1.0,3.0,757.0,59.0,-37.8411,144.889,19994,507.71,16.31,False,71.0,261.0,20.0,Sacred Heart School,679.03,66,Bayside P-12 College,1877.6,243
ID893113704,430 Whitehorse Rd,SURREY HILLS,1050000.0,h,24/06/2017,3,2.0,2.0,444.0,74.0,-37.81411,145.09055,19894,1146.53,25.77,False,2532.33,5455.0,713.0,Chatham Primary School,404.47,310,Fintona Girls' School,906.64,not ranked
ID895668140,56a Clifton St,BALWYN NORTH,1230000.0,h,14/05/2016,3,3.0,1.0,310.0,7.0,-37.7949,145.1014,19896,2754.28,28.79,False,925.67,4701.33,308.67,St Bridget's School,198.96,256,Koonung Secondary College,1636.84,94
ID779950723,9 Grace St,WATSONIA,1000000.0,h,4/03/2017,3,2.0,2.0,739.0,49.0,-37.7104,145.0817,19984,194.53,37.67,False,647.0,2861.33,222.67,Watsonia Primary School,593.28,not ranked,Loyola College,784.33,206
ID118109816,1/52 Drinkwater Cr,SUNSHINE WEST,450000.0,h,8/07/2017,3,1.0,2.0,283.0,49.0,-37.79703,144.81228000000004,20020,1790.16,21.33,False,2532.33,5455.0,713.0,Glengala Primary School,268.69,not ranked,Marian College,1168.02,not ranked
ID299532761,26 Innellan Rd,MURRUMBEENA,1220000.0,h,28/05/2016,3,1.0,2.0,735.0,59.0,-37.8943,145.0689,19919,475.84,25.38,False,268.33,736.0,128.33,St Patrick's School,891.26,346,Oakleigh Grammar,1235.72,270
ID963355830,7/37 Blyth St,BRUNSWICK,730000.0,h,3/06/2017,2,1.0,1.0,134.0,49.0,-37.76569,144.9656,19968,575.42,25.33,False,941.33,5813.0,575.67,St Margaret Mary's School,819.56,483,Sydney Road Community School,552.84,447
ID234382167,224 Ballarat Rd,FOOTSCRAY,690500.0,h,19/11/2016,2,1.0,1.0,212.0,119.0,-37.7903,144.8879,20023,1300.99,19.4,False,1923.67,8979.33,620.33,Footscray North Primary School,489.38,235,Footscray City College,544.57,166
ID168149733,398 Wattletree Rd,MALVERN EAST,1750000.0,h,22/08/2016,3,1.0,2.0,562.0,21.0,-37.8657,145.0536,19943,1631.16,21.27,False,610.0,1743.67,228.0,Sacre Coeur,474.14,176,Sacre Coeur,474.14,16
ID875490736,3 Rogers Rd,BENTLEIGH,1286000.0,h,20/05/2017,3,1.0,2.0,614.0,7.0,-37.9317,145.0427,19937,601.01,38.27,False,959.0,4476.67,324.0,Tucker Road Bentleigh Primary School,562.08,380,Our Lady of the Sacred Heart College,708.04,not ranked
ID216729291,75 Victor Rd,BENTLEIGH EAST,825000.0,t,17/09/2016,3,1.0,1.0,642.0,9.0,-37.9269,145.0787,19916,2728.44,31.35,False,925.67,4701.33,308.67,St Peter's School,807.48,345,St James' College,645.82,not ranked
ID261702482,309 Springvale Rd,FOREST HILL,800000.0,h,24/06/2017,3,1.0,2.0,617.0,59.0,-37.8318,145.17368000000005,19899,1250.94,31.67,False,2006.67,7754.33,1051.33,Mount Pleasant Road Nunawading Primary School,667.56,154,Nunawading Christian College-Secondary,1108.56,not ranked
ID522980841,5 Evans Ct,BROADMEADOWS,586000.0,h,29/07/2017,3,1.0,1.0,677.0,39.0,-37.69265,144.92653,20031,980.39,38.0,False,684.0,1695.67,161.0,Glenroy Private,619.19,not ranked,Glenroy Private,619.19,not ranked
ID451518448,6 Berry St,RICHMOND,900000.0,h,10/12/2016,2,1.0,0.0,95.0,119.0,-37.8193,144.9976,19978,727.78,9.12,False,824.67,1890.33,159.33,Richmond West Primary School,652.56,452,Richmond High School,503.76,not ranked
ID728699276,60 Highland Av,OAKLEIGH EAST,1382000.0,h,23/09/2017,3,2.0,2.0,847.0,79.0,-37.90638,145.11733,19916,1412.14,31.35,False,938.33,6892.67,553.33,Clayton North Primary School,776.69,not ranked,John Monash Science School,1325.35,59
ID263094116,2/11 Winfield Rd,BALWYN NORTH,860000.0,t,10/12/2016,2,2.0,2.0,204.0,27.0,-37.8008,145.10399999999996,19896,2077.82,28.79,False,925.67,4701.33,308.67,St Bridget's School,546.63,256,Box Hill Senior Secondary College,1169.17,not ranked
ID171333181,32 Collingwood Rd,NEWPORT,1000000.0,h,8/07/2017,3,1.0,2.0,366.0,104.0,-37.84346,144.88947,19994,522.59,16.31,False,84.33,293.33,23.0,Sacred Heart School,806.06,66,Bayside P-12 College,1628.71,243
ID310151879,10 Murphy St,ALTONA NORTH,965000.0,h,15/10/2016,4,1.0,4.0,851.0,59.0,-37.8345,144.8444,19994,3565.48,16.31,True,2489.67,11817.33,1268.67,Altona North Primary School,501.81,not ranked,Emmanuel College,365.82,180
ID719606630,2/36 Alpine Gr,PASCOE VALE,600000.0,t,27/11/2016,3,2.0,1.0,122.0,21.0,-37.7231,144.9373,20034,1169.98,31.0,False,659.0,5219.33,338.33,Westbreen Primary School,774.79,321,Pascoe Vale Girls Secondary College,636.33,not ranked
ID513659888,30 Ashton St,RESERVOIR,731000.0,h,3/12/2016,3,1.0,2.0,779.0,69.0,-37.7292,145.0214,20011,1642.41,31.2,False,824.67,1890.33,159.33,Holy Name School,275.41,463,Reservoir High School,1067.87,346
ID311553143,16 Flowerdale Rd,GLEN IRIS,2000000.0,h,14/05/2016,5,3.0,1.0,696.0,99.0,-37.8563,145.0709,19849,995.8,28.67,False,1923.67,8979.33,620.33,Glen Iris Primary School,640.62,120,Korowa Anglican Girls' School,1540.17,13
ID787508267,115 Cheddar Rd,RESERVOIR,836000.0,h,15/10/2016,2,1.0,1.0,931.0,49.0,-37.7033,145.0169,20009,827.5,35.2,False,824.67,1890.33,159.33,Maharishi School of the Age of Enlightenment,255.9,not ranked,William Ruthven Secondary College,1446.83,not ranked
ID727052804,6 Parkside Av,BOX HILL,1820000.0,h,3/09/2017,2,1.0,2.0,701.0,79.0,-37.82756,145.11897,20042,953.05,25.77,False,2897.33,11243.0,942.0,Kingswood College,581.52,53,Kingswood College,581.52,106
ID801671635,43 Christmas St,NORTHCOTE,1286000.0,h,3/09/2016,2,1.0,1.0,245.0,129.0,-37.7662,145.0096,20015,1128.3,23.3,True,136.33,302.67,42.0,Wales Street Primary School,526.42,175,Santa Maria College,778.82,137
ID807699133,13 Mills St,HAMPTON,1285000.0,t,24/06/2017,2,1.0,1.0,348.0,27.0,-37.93557,145.00463,19949,385.64,31.5,False,1841.67,9184.67,533.33,Hampton Primary School,262.97,76,St Leonard's College,813.98,43
ID661090578,7/72 Grosvenor St,BALACLAVA,410000.0,u,3/12/2016,2,1.0,2.0,0.0,54.0,-37.8731,144.9958,19955,316.3,19.5,False,1654.0,9119.67,550.0,Beth Rivkah Ladies College,613.58,197,Beth Rivkah Ladies College,613.58,36
ID517343778,10/32 Manningtree Rd,HAWTHORN,805000.0,u,22/08/2016,2,1.0,1.0,0.0,49.0,-37.8235,145.0294,19905,601.27,13.95,False,1150.67,7827.0,922.33,Glenferrie Primary School,406.79,62,Swinburne Senior Secondary College,1005.07,not ranked
ID461436852,217 Murrumbeena Rd,MURRUMBEENA,1540000.0,h,27/05/2017,4,2.0,2.0,589.0,99.0,-37.90017,145.06435,19919,1141.38,25.38,False,298.0,735.0,154.0,St Patrick's School,195.91,346,Oakleigh Grammar,1690.31,270
ID637037504,4 webster St,SEDDON,1455000.0,h,19/11/2016,4,2.0,3.0,571.0,99.0,-37.809,144.8865,19997,806.61,10.36,False,824.67,1890.33,159.33,St Augustine's School,602.9,not ranked,Gilmore College For Girls,1326.27,387
